NORAD_CAT_ID,OBJECT_NAME,OBJECT_TYPE,EPOCH,MEAN_MOTION,ECCENTRICITY,INCLINATION,RA_OF_ASC_NODE,ARG_OF_PERICENTER,MEAN_ANOMALY,BSTAR,MEAN_MOTION_DOT,MEAN_MOTION_DDOT,TLE_LINE0,TLE_LINE1,TLE_LINE2,SEMIMAJOR_AXIS,PERIOD,APOGEE,PERIGEE,DECAYED
56786.0,STARLINK-6341,PAYLOAD,2024-08-02 14:48:05,14.98323119,0.0002889,70.0019,357.1672,266.8993,93.1835,-1.3054e-05,-2.49e-06,0.0,0 STARLINK-6341,1 56786U 23078V   24215.61673483 -.00000249  00000-0 -13054-4 0  9998,2 56786  70.0019 357.1672 0002889 266.8993  93.1835 14.98323119 65687,6950.214,96.107,574.087,570.071,0.0
56786.0,STARLINK-6341,PAYLOAD,2024-08-02 19:36:29,14.98327958,0.0002888,70.002,356.6626,267.8918,92.191,2.1088e-05,1.59e-06,0.0,0 STARLINK-6341,1 56786U 23078V   24215.81701151  .00000159  00000-0  21088-4 0  9998,2 56786  70.0020 356.6626 0002888 267.8918  92.1910 14.98327958 65711,6950.199,96.107,574.071,570.057,0.0
56786.0,STARLINK-6341,PAYLOAD,2024-08-03 13:13:57,14.9833581,0.0002949,70.0019,354.8112,267.1704,92.9118,6.7027e-05,7.07e-06,0.0,0 STARLINK-6341,1 56786U 23078V   24216.55136475  .00000707  00000-0  67027-4 0  9993,2 56786  70.0019 354.8112 0002949 267.1704  92.9118 14.98335810 66088,6950.175,96.107,574.09,569.99,0.0
56786.0,STARLINK-6341,PAYLOAD,2024-08-03 14:50:05,14.98336131,0.0002997,70.002,354.643,267.6072,92.4744,8.4949e-05,9.21e-06,0.0,0 STARLINK-6341,1 56786U 23078V   24216.61812398  .00000921  00000-0  84949-4 0  9995,2 56786  70.0020 354.6430 0002997 267.6072  92.4744 14.98336131 65836,6950.174,96.107,574.122,569.956,0.0
56786.0,STARLINK-6341,PAYLOAD,2024-08-03 19:38:29,14.98344892,0.0002916,70.0021,354.1384,268.7127,91.3698,0.00011175,1.241e-05,0.0,0 STARLINK-6341,1 56786U 23078V   24216.81839729  .00001241  00000-0  11175-3 0  9990,2 56786  70.0021 354.1384 0002916 268.7127  91.3698 14.98344892 66126,6950.147,96.106,574.039,569.985,0.0
56786.0,STARLINK-6341,PAYLOAD,2024-08-04 13:15:59,14.98325054,0.0002713,70.0035,352.2889,265.0127,95.0722,0.00015823,1.795e-05,0.0,0 STARLINK-6341,1 56786U 23078V   24217.55277039  .00001795  00000-0  15823-3 0  9990,2 56786  70.0035 352.2889 0002713 265.0127  95.0722 14.98325054 66235,6950.208,96.107,573.959,570.188,0.0
56786.0,STARLINK-6341,PAYLOAD,2024-08-04 14:52:07,14.98325442,0.0002708,70.0021,352.1186,267.8194,92.2655,9.8562e-05,1.083e-05,0.0,0 STARLINK-6341,1 56786U 23078V   24217.61953144  .00001083  00000-0  98562-4 0  9997,2 56786  70.0021 352.1186 0002708 267.8194  92.2655 14.98325442 65983,6950.207,96.107,573.954,570.19,0.0
56786.0,STARLINK-6341,PAYLOAD,2024-08-04 19:40:31,14.983333,0.0002643,70.0024,351.6151,261.7432,98.3428,0.00019378,2.22e-05,0.0,0 STARLINK-6341,1 56786U 23078V   24217.81980599  .00002220  00000-0  19378-3 0  9994,2 56786  70.0024 351.6151 0002643 261.7432  98.3428 14.98333300 66278,6950.183,96.107,573.885,570.211,0.0
56786.0,STARLINK-6341,PAYLOAD,2024-08-05 18:06:23,14.98341169,0.0002798,70.0037,349.2571,271.2533,88.8306,0.00011832,1.319e-05,0.0,0 STARLINK-6341,1 56786U 23078V   24218.75443942  .00001319  00000-0  11832-3 0  9999,2 56786  70.0037 349.2571 0002798 271.2533  88.8306 14.98341169 66158,6950.158,96.106,573.968,570.079,0.0
56786.0,STARLINK-6341,PAYLOAD,2024-08-06 02:07:04,14.98335361,0.0002818,70.0037,348.4154,273.4114,86.6723,-9.1122e-06,-2.02e-06,0.0,0 STARLINK-6341,1 56786U 23078V   24219.08824134 -.00000202  00000-0 -91122-5 0  9996,2 56786  70.0037 348.4154 0002818 273.4114  86.6723 14.98335361 66468,6950.176,96.107,574.0,570.083,0.0
56786.0,STARLINK-6341,PAYLOAD,2024-08-06 11:43:53,14.98319518,0.0002671,70.0022,347.4057,274.4095,85.6759,3.5896e-06,-5e-07,0.0,0 STARLINK-6341,1 56786U 23078V   24219.48881446 -.00000050  00000-0  35896-5 0  9995,2 56786  70.0022 347.4057 0002671 274.4095  85.6759 14.98319518 66520,6950.225,96.108,573.947,570.234,0.0
56786.0,STARLINK-6341,PAYLOAD,2024-08-06 14:56:09,14.98325766,0.0003046,70.0014,347.0692,273.5346,86.5465,-2.4034e-05,-3.8e-06,0.0,0 STARLINK-6341,1 56786U 23078V   24219.62233093 -.00000380  00000-0 -24034-4 0  9998,2 56786  70.0014 347.0692 0003046 273.5346  86.5465 14.98325766 66287,6950.206,96.107,574.188,569.954,0.0
56786.0,STARLINK-6341,PAYLOAD,2024-08-06 18:08:25,14.98323605,0.0002795,70.0021,346.7314,268.0572,92.0267,4.4276e-05,4.35e-06,0.0,0 STARLINK-6341,1 56786U 23078V   24219.75585132  .00000435  00000-0  44276-4 0  9995,2 56786  70.0021 346.7314 0002795 268.0572  92.0267 14.98323605 66307,6950.213,96.107,574.02,570.135,0.0
56786.0,STARLINK-6341,PAYLOAD,2024-08-07 11:45:53,14.98331988,0.0002933,70.0019,344.8812,273.4134,86.669,9.0013e-05,9.81e-06,0.0,0 STARLINK-6341,1 56786U 23078V   24220.49020709  .00000981  00000-0  90013-4 0  9998,2 56786  70.0019 344.8812 0002933 273.4134  86.6690 14.98331988 66676,6950.187,96.107,574.09,570.013,0.0
56786.0,STARLINK-6341,PAYLOAD,2024-08-07 18:10:25,14.98344105,0.0002961,70.0018,344.2076,273.6364,86.4457,0.00017884,2.042e-05,0.0,0 STARLINK-6341,1 56786U 23078V   24220.75723751  .00002042  00000-0  17884-3 0  9998,2 56786  70.0018 344.2076 0002961 273.6364  86.4457 14.98344105 66718,6950.149,96.106,574.072,569.956,0.0
56786.0,STARLINK-6341,PAYLOAD,2024-08-08 18:12:26,14.98341351,0.0002638,70.0041,341.6854,259.7731,100.3131,0.00036844,4.307e-05,0.0,0 STARLINK-6341,1 56786U 23078V   24221.75864092  .00004307  00000-0  36844-3 0  9996,2 56786  70.0041 341.6854 0002638 259.7731 100.3131 14.98341351 66864,6950.158,96.106,573.856,570.189,0.0
56786.0,STARLINK-6341,PAYLOAD,2024-08-09 11:49:55,14.98324704,0.000371,70.0007,339.8326,275.9172,84.1564,-0.00022664,-2.796e-05,0.0,0 STARLINK-6341,1 56786U 23078V   24222.49300876 -.00002796  00000-0 -22664-3 0  9990,2 56786  70.0007 339.8326 0003710 275.9172  84.1564 14.98324704 66974,6950.209,96.107,574.653,569.496,0.0
56786.0,STARLINK-6341,PAYLOAD,2024-08-09 15:02:12,14.98319309,0.000413,69.9996,339.4908,288.7236,71.3474,-0.00025832,-3.173e-05,0.0,0 STARLINK-6341,1 56786U 23078V   24222.62653334 -.00003173  00000-0 -25832-3 0  9995,2 56786  69.9996 339.4908 0004130 288.7236  71.3474 14.98319309 66737,6950.226,96.108,574.961,569.221,0.0
56786.0,STARLINK-6341,PAYLOAD,2024-08-09 18:14:29,14.98320019,0.000272,70.0025,339.1606,263.0524,97.0326,-0.00013201,-1.667e-05,0.0,0 STARLINK-6341,1 56786U 23078V   24222.76006100 -.00001667  00000-0 -13201-3 0  9996,2 56786  70.0025 339.1606 0002720 263.0524  97.0326 14.98320019 67017,6950.224,96.108,573.979,570.198,0.0
56786.0,STARLINK-6341,PAYLOAD,2024-08-10 11:51:56,14.98343223,0.0003082,70.0031,337.3071,275.3828,84.6979,0.00056395,6.645e-05,0.0,0 STARLINK-6341,1 56786U 23078V   24223.49440689  .00006645  00000-0  56395-3 0  9991,2 56786  70.0031 337.3071 0003082 275.3828  84.6979 14.98343223 67125,6950.152,96.106,574.159,569.875,0.0
56786.0,STARLINK-6341,PAYLOAD,2024-08-10 13:28:05,14.98345136,0.0003079,70.0035,337.1389,276.9538,83.1271,0.0013002,0.00015461,0.0,0 STARLINK-6341,1 56786U 23078V   24223.56116988  .00015461  00000-0  13002-2 0  9994,2 56786  70.0035 337.1389 0003079 276.9538  83.1271 14.98345136 66875,6950.146,96.106,574.151,569.871,0.0
56786.0,STARLINK-6341,PAYLOAD,2024-08-10 16:40:20,14.98366674,0.0002975,70.0035,336.8023,280.0252,80.0572,0.0024106,0.00028816,0.0,0 STARLINK-6341,1 56786U 23078V   24223.69468707  .00028816  00000-0  24106-2 0  9992,2 56786  70.0035 336.8023 0002975 280.0252  80.0572 14.98366674 67151,6950.079,96.105,574.012,569.877,0.0
56786.0,STARLINK-6341,PAYLOAD,2024-08-11 00:41:00,14.98367166,0.0002995,70.0038,335.9595,275.3166,84.7652,0.0015206,0.00018115,0.0,0 STARLINK-6341,1 56786U 23078V   24224.02848243  .00018115  00000-0  15206-2 0  9999,2 56786  70.0038 335.9595 0002995 275.3166  84.7652 14.98367166 67204,6950.078,96.105,574.025,569.861,0.0
56786.0,STARLINK-6341,PAYLOAD,2024-08-11 13:30:05,14.98331274,0.0003034,70.0031,334.614,269.5248,90.5563,0.0014627,0.00017404,0.0,0 STARLINK-6341,1 56786U 23078V   24224.56256721  .00017404  00000-0  14627-2 0  9998,2 56786  70.0031 334.6140 0003034 269.5248  90.5563 14.98331274 67285,6950.189,96.107,574.163,569.945,0.0
56786.0,STARLINK-6341,PAYLOAD,2024-08-12 10:19:50,14.98366081,0.0003358,70.003,332.4256,267.9974,92.08,0.0020763,0.00024793,0.0,0 STARLINK-6341,1 56786U 23078V   24225.43044142  .00024793  00000-0  20763-2 0  9994,2 56786  70.0030 332.4256 0003358 267.9974  92.0800 14.98366081 67156,6950.081,96.105,574.28,569.612,0.0
56786.0,STARLINK-6341,PAYLOAD,2024-08-12 16:44:21,14.98413109,0.0003129,70.0028,331.7526,268.1386,91.9415,0.0046216,0.00055611,0.0,0 STARLINK-6341,1 56786U 23078V   24225.69746930  .00055611  00000-0  46216-2 0  9990,2 56786  70.0028 331.7526 0003129 268.1386  91.9415 14.98413109 67458,6949.936,96.102,573.976,569.626,0.0
56786.0,STARLINK-6341,PAYLOAD,2024-08-13 00:45:01,14.98388022,0.000189,70.0002,330.9044,247.2682,112.8277,0.001703,0.00020316,0.0,0 STARLINK-6341,1 56786U 23078V   24226.03126348  .00020316  00000-0  17030-2 0  9990,2 56786  70.0002 330.9044 0001890 247.2682 112.8277 14.98388022 67506,6950.013,96.103,573.192,570.565,0.0
56786.0,STARLINK-6341,PAYLOAD,2024-08-13 13:34:06,14.98283285,0.0002961,70.0018,329.5609,264.9374,95.1448,-0.002512,-0.00029902,0.0,0 STARLINK-6341,1 56786U 23078V   24226.56535528 -.00029902  00000-0 -25120-2 0  9993,2 56786  70.0018 329.5609 0002961 264.9374  95.1448 14.98283285 67584,6950.337,96.11,574.26,570.144,0.0
56786.0,STARLINK-6341,PAYLOAD,2024-08-13 16:46:23,14.98269558,0.0002891,70.0017,329.2242,266.489,93.5938,-0.0013298,-0.00015899,0.0,0 STARLINK-6341,1 56786U 23078V   24226.69888326 -.00015899  00000-0 -13298-2 0  9997,2 56786  70.0017 329.2242 0002891 266.4890  93.5938 14.98269558 67342,6950.38,96.111,574.254,570.235,0.0
56786.0,STARLINK-6341,PAYLOAD,2024-08-14 00:47:05,14.98274772,0.0003171,70.0024,328.3855,268.2609,91.8187,0.0010308,0.0001221,0.0,0 STARLINK-6341,1 56786U 23078V   24227.03269786  .00012210  00000-0  10308-2 0  9990,2 56786  70.0024 328.3855 0003171 268.2609  91.8187 14.98274772 67655,6950.364,96.111,574.433,570.025,0.0
